{
    "links": {
        "self": "http://www.neowsapp.com/rest/v1/neo/3771606?api_key=iIulBulltgU6a56xZRHN4H3l9WmuAYTsLGpBGhQ2"
    },
    "id": "3771606",
    "neo_reference_id": "3771606",
    "name": "(2017 FX)",
    "designation": "2017 FX",
    "nasa_jpl_url": "http://ssd.jpl.nasa.gov/sbdb.cgi?sstr=3771606",
    "absolute_magnitude_h": 23.0,
    "estimated_diameter": {
        "kilometers": {
            "estimated_diameter_min": 0.0667659413,
            "estimated_diameter_max": 0.1492931834
        },
        "meters": {
            "estimated_diameter_min": 66.7659413495,
            "estimated_diameter_max": 149.2931834393
        },
        "miles": {
            "estimated_diameter_min": 0.0414864197,
            "estimated_diameter_max": 0.0927664547
        },
        "feet": {
            "estimated_diameter_min": 219.0483710172,
            "estimated_diameter_max": 489.807047955
        }
    },
    "is_potentially_hazardous_asteroid": false,
    "close_approach_data": [
        {
            "close_approach_date": "2014-03-20",
            "close_approach_date_full": "2014-Mar-20 18:43",
            "epoch_date_close_approach": 1395340980000,
            "relative_velocity": {
                "kilometers_per_second": "26.9294333686",
                "kilometers_per_hour": "96945.9601269902",
                "miles_per_hour": "60238.4495022401"
            },
            "miss_distance": {
                "astronomical": "0.3285081395",
                "lunar": "127.7896662655",
                "kilometers": "49144117.946862865",
                "miles": "30536738.884782937"
            },
            "orbiting_body": "Earth"
        },
        {
            "close_approach_date": "2017-03-07",
            "close_approach_date_full": "2017-Mar-07 05:10",
            "epoch_date_close_approach": 1488863400000,
            "relative_velocity": {
                "kilometers_per_second": "19.854804781",
                "kilometers_per_hour": "71477.2972115377",
                "miles_per_hour": "44413.2128145802"
            },
            "miss_distance": {
                "astronomical": "0.0852425481",
                "lunar": "33.1593512109",
                "kilometers": "12752103.629132547",
                "miles": "7923789.7641292686"
            },
            "orbiting_body": "Earth"
        }
    ],
    "orbital_data": {
        "orbit_id": "7",
        "orbit_determination_date": "2017-05-15 14:06:44",
        "first_observation_date": "2017-03-17",
        "last_observation_date": "2017-04-03",
        "data_arc_in_days": 17,
        "observations_used": 35,
        "orbit_uncertainty": "7",
        "minimum_orbit_intersection": ".0333695",
        "jupiter_tisserand_invariant": "3.464",
        "epoch_osculation": "2459000.5",
        "eccentricity": ".6425815001835995",
        "semi_major_axis": "2.060915653573681",
        "inclination": "13.17235624487995",
        "ascending_node_longitude": "169.6178044089181",
        "orbital_period": "1080.659196604103",
        "perihelion_distance": ".7366093811484417",
        "perihelion_argument": "280.8009805653659",
        "aphelion_distance": "3.38522192599892",
        "perihelion_time": "2458856.227794596314",
        "mean_anomaly": "48.06140003114643",
        "mean_motion": ".3331300016982923",
        "equinox": "J2000",
        "orbit_class": {
            "orbit_class_type": "APO",
            "orbit_class_description": "Near-Earth asteroid orbits which cross the Earth’s orbit similar to that of 1862 Apollo",
            "orbit_class_range": "a (semi-major axis) > 1.0 AU; q (perihelion) < 1.017 AU"
        }
    },
    "is_sentry_object": false
}